OBJECT_NAME,OBJECT_ID,EPOCH,MEAN_MOTION,ECCENTRICITY,INCLINATION,RA_OF_ASC_NODE,ARG_OF_PERICENTER,MEAN_ANOMALY,EPHEMERIS_TYPE,CLASSIFICATION_TYPE,NORAD_CAT_ID,ELEMENT_SET_NO,REV_AT_EPOCH,BSTAR,MEAN_MOTION_DOT,MEAN_MOTION_DDOT
KUZGTU 1 (RS47S),2023-091AV,2026-06-27T05:41:17.894688,15.30085780,.0011853,97.5067,242.8200,66.8260,293.4228,0,U,57217,999,16591,.47320788E-3,.13739E-3,0
SONATE-2,2024-043Q,2026-06-26T23:00:10.657152,15.59436847,.0007313,97.5532,328.9589,163.6237,196.5256,0,U,59112,999,12941,.54515874E-3,.43201E-3,0
MESAT1,2024-125G,2026-06-27T03:40:41.945664,15.64300027,.00104662,97.2279,35.8697,169.3178,190.8306,0,U,60209,999,11112,.71019612E-3,.68241E-3,0
OOV-CUBE (TUBSAT-30),2024-128F,2026-06-27T07:15:24.714432,15.02808276,.00433801,61.9924,190.3003,136.0271,224.4286,0,U,60240,999,10763,.14516868E-3,.1776E-4,0
COLIBRI-S (RS67S),2024-199M,2026-06-27T06:37:13.401120,15.48130961,.00066785,97.2985,52.2243,229.6467,130.4201,0,U,61746,999,13897,.45421108E-3,.23811E-3,0
HORS 3 (RS81S),2024-199U,2026-06-27T06:07:21.376992,15.55660745,.00045217,97.2970,54.3005,221.4388,138.6524,0,U,61753,999,13912,.58869471E-3,.4049E-3,0
HORS 4 (RS82S),2024-199V,2026-06-27T05:58:11.797824,15.60618543,.00044668,97.2912,55.5621,206.1599,153.9433,0,U,61754,999,13921,.6343552E-3,.5262E-3,0
SIT-2086,2024-199AF,2026-06-27T05:53:38.436000,15.53769467,.00058239,97.2929,54.7325,204.8496,155.2478,0,U,61764,999,13599,.60499478E-3,.38842E-3,0
HYPERVIEW 1G (RS66S),2024-199AP,2026-06-26T18:29:46.347648,15.78571118,.00059865,97.2856,57.9913,186.8100,173.3087,0,U,61772,999,13618,.84483271E-3,.148755E-2,0
ALTAIR (RS65S),2024-199AW,2026-06-27T06:25:18.570720,15.37209068,.00107541,97.3024,47.5529,268.8262,91.1751,0,U,61779,999,13866,.33267707E-3,.12068E-3,0
ASRTU-1 (AO-123),2024-199AY,2026-06-27T06:20:44.950560,15.35814522,.00118732,97.2995,46.8449,272.5318,87.4567,0,U,61781,999,13547,.23287609E-3,.8052E-4,0
SAMSAT-IONOSPHERE (RS75S),2024-199BB,2026-06-27T06:30:49.304736,15.58508056,.00066996,97.2937,54.4015,226.2011,133.8692,0,U,61784,999,13913,.66865201E-3,.5123E-3,0
RTU MIREA 1 (RS51S),2024-199BC,2026-06-27T06:32:52.820448,15.62189299,.00067275,97.2924,55.2880,218.1908,141.8874,0,U,61785,999,13604,.71709448E-3,.63319E-3,0
TEVEL2-4,2025-052D,2026-06-27T05:20:48.947136,15.34955968,.00048196,97.3900,74.6325,85.3074,274.8720,0,U,63213,999,7165,.58985118E-3,.19955E-3,0
TEVEL2-5,2025-052E,2026-06-27T05:51:58.964544,15.34779098,.00048049,97.3898,74.5989,85.8149,274.3643,0,U,63214,999,7165,.60144959E-3,.20235E-3,0
TEVEL2-6,2025-052F,2026-06-27T06:10:04.123488,15.34743866,.00046434,97.3903,74.5963,86.9832,273.1942,0,U,63215,999,7165,.60477859E-3,.20324E-3,0
TEVEL2-1,2025-052H,2026-06-27T05:23:02.428224,15.34194637,.00049956,97.3871,74.1759,94.4509,265.7304,0,U,63217,999,7163,.5745837E-3,.1897E-3,0
TEVEL2-3,2025-052J,2026-06-27T05:14:47.557536,15.34253406,.00048586,97.3877,74.1933,95.2492,264.9305,0,U,63218,999,7163,.58899626E-3,.19485E-3,0
TEVEL2-2,2025-052K,2026-06-27T05:23:24.260640,15.34205693,.00050086,97.3873,74.1789,94.7391,265.4424,0,U,63219,999,7163,.58752058E-3,.19407E-3,0
TEVEL2-9,2025-052AD,2026-06-27T05:09:40.576608,15.32198035,.00082938,97.3934,73.5229,104.2052,256.0111,0,U,63237,999,7156,.57551268E-3,.17853E-3,0
TEVEL2-7,2025-052AE,2026-06-27T04:37:19.728480,15.31893747,.00083603,97.3939,73.4122,104.5251,255.6918,0,U,63238,999,7155,.57189488E-3,.17572E-3,0
TEVEL2-8,2025-052AF,2026-06-26T05:18:23.535072,15.31844407,.0008385,97.3937,72.4192,107.6731,252.5427,0,U,63239,999,7140,.58597E-3,.1798E-3,0
INNOSAT 16 (RS92S7),2025-155C,2026-06-27T05:38:03.022080,15.25558773,.00116615,97.4562,145.3309,142.4488,217.7566,0,U,64878,999,8220,.24029022E-3,.6035E-4,0
GEOSCAN 6 (RS92S6),2025-155D,2026-06-27T06:02:42.615168,15.30333202,.00094296,97.4554,146.8436,132.1105,228.0938,0,U,64879,999,8230,.37250512E-3,.1087E-3,0
GEOSCAN 1 (RS92S1),2025-155E,2026-06-27T06:00:31.370112,15.30950186,.00093793,97.4550,146.9988,132.0419,228.1622,0,U,64880,999,8231,.42485889E-3,.12651E-3,0
239ALFEROV (RS61S),2025-155F,2026-06-27T06:29:49.252416,15.33203226,.00090942,97.4550,147.6150,130.2730,229.9309,0,U,64881,999,8235,.49640028E-3,.1588E-3,0
GEOSCAN 2 (RS92S2),2025-155Q,2026-06-27T05:48:52.306848,15.31213650,.00090012,97.4550,147.1471,120.7992,239.4136,0,U,64890,999,8232,.35712694E-3,.10706E-3,0
GEOSCAN 5 (RS92S5),2025-155R,2026-06-27T06:11:01.126752,15.33519033,.00079512,97.4542,147.7432,133.6825,226.5078,0,U,64891,999,8236,.48151894E-3,.1555E-3,0
GEOSCAN 4 (RS92S4),2025-155S,2026-06-27T05:46:46.899840,15.33676927,.00079915,97.4546,147.7776,133.2928,226.8982,0,U,64892,999,8236,.46984244E-3,.15247E-3,0
GEOSCAN 3 (RS92S3),2025-155T,2026-06-27T05:28:55.549344,15.35722110,.00079578,97.4534,148.2240,132.4449,227.7469,0,U,64893,999,8239,.5637711E-3,.19551E-3,0
