KUZGTU 1 (RS47S)        
1 57217U 23091AV  26178.23701267  .00013739  00000+0  47321-3 0  9991
2 57217  97.5067 242.8200 0011853  66.8260 293.4228 15.30085780165911
SONATE-2                
1 59112U 24043Q   26177.95845668  .00043201  00000+0  54516-3 0  9998
2 59112  97.5532 328.9589 0007313 163.6237 196.5256 15.59436847129410
MESAT1                  
1 60209U 24125G   26178.15326326  .00068241  00000+0  71020-3 0  9996
2 60209  97.2279  35.8697 0010466 169.3178 190.8306 15.64300027111126
OOV-CUBE (TUBSAT-30)    
1 60240U 24128F   26178.30236938  .00001776  00000+0  14517-3 0  9998
2 60240  61.9924 190.3003 0043380 136.0271 224.4286 15.02808276107633
COLIBRI-S (RS67S)       
1 61746U 24199M   26178.27584955  .00023811  00000+0  45421-3 0  9991
2 61746  97.2985  52.2243 0006678 229.6467 130.4201 15.48130961138974
HORS 3 (RS81S)          
1 61753U 24199U   26178.25510853  .00040490  00000+0  58869-3 0  9995
2 61753  97.2970  54.3005 0004521 221.4388 138.6524 15.55660745139124
HORS 4 (RS82S)          
1 61754U 24199V   26178.24874766  .00052620  00000+0  63436-3 0  9995
2 61754  97.2912  55.5621 0004466 206.1599 153.9433 15.60618543139214
SIT-2086                
1 61764U 24199AF  26178.24558375  .00038842  00000+0  60499-3 0  9997
2 61764  97.2929  54.7325 0005823 204.8496 155.2478 15.53769467135993
HYPERVIEW 1G (RS66S)    
1 61772U 24199AP  26177.77067532  .00148755  00000+0  84483-3 0  9997
2 61772  97.2856  57.9913 0005986 186.8100 173.3087 15.78571118136180
ALTAIR (RS65S)          
1 61779U 24199AW  26178.26757605  .00012068  00000+0  33268-3 0  9998
2 61779  97.3024  47.5529 0010754 268.8262  91.1751 15.37209068138669
ASRTU-1 (AO-123)        
1 61781U 24199AY  26178.26440915  .00008052  00000+0  23288-3 0  9993
2 61781  97.2995  46.8449 0011873 272.5318  87.4567 15.35814522135472
SAMSAT-IONOSPHERE (RS7*)
1 61784U 24199BB  26178.27140399  .00051230  00000+0  66865-3 0  9994
2 61784  97.2937  54.4015 0006699 226.2011 133.8692 15.58508056139130
RTU MIREA 1 (RS51S)     
1 61785U 24199BC  26178.27283357  .00063319  00000+0  71709-3 0  9991
2 61785  97.2924  55.2880 0006727 218.1908 141.8874 15.62189299136040
TEVEL2-4                
1 63213U 25052D   26178.22278874  .00019955  00000+0  58985-3 0  9999
2 63213  97.3900  74.6325 0004819  85.3074 274.8720 15.34955968 71655
TEVEL2-5                
1 63214U 25052E   26178.24443246  .00020235  00000+0  60145-3 0  9993
2 63214  97.3898  74.5989 0004804  85.8149 274.3643 15.34779098 71656
TEVEL2-6                
1 63215U 25052F   26178.25699217  .00020324  00000+0  60478-3 0  9994
2 63215  97.3903  74.5963 0004643  86.9832 273.1942 15.34743866 71651
TEVEL2-1                
1 63217U 25052H   26178.22433366  .00018970  00000+0  57458-3 0  9992
2 63217  97.3871  74.1759 0004995  94.4509 265.7304 15.34194637 71634
TEVEL2-3                
1 63218U 25052J   26178.21860599  .00019485  00000+0  58900-3 0  9999
2 63218  97.3877  74.1933 0004858  95.2492 264.9305 15.34253406 71635
TEVEL2-2                
1 63219U 25052K   26178.22458635  .00019407  00000+0  58752-3 0  9994
2 63219  97.3873  74.1789 0005008  94.7391 265.4424 15.34205693 71634
TEVEL2-9                
1 63237U 25052AD  26178.21505297  .00017853  00000+0  57551-3 0  9999
2 63237  97.3934  73.5229 0008293 104.2052 256.0111 15.32198035 71564
TEVEL2-7                
1 63238U 25052AE  26178.19258945  .00017572  00000+0  57189-3 0  9997
2 63238  97.3939  73.4122 0008360 104.5251 255.6918 15.31893747 71550
TEVEL2-8                
1 63239U 25052AF  26177.22110573  .00017980  00000+0  58597-3 0  9992
2 63239  97.3937  72.4192 0008385 107.6731 252.5427 15.31844407 71403
INNOSAT 16 (RS92S7)     
1 64878U 25155C   26178.23475720  .00006035  00000+0  24029-3 0  9998
2 64878  97.4562 145.3309 0011661 142.4488 217.7566 15.25558773 82203
GEOSCAN 6 (RS92S6)      
1 64879U 25155D   26178.25188212  .00010870  00000+0  37251-3 0  9991
2 64879  97.4554 146.8436 0009429 132.1105 228.0938 15.30333202 82306
GEOSCAN 1 (RS92S1)      
1 64880U 25155E   26178.25036308  .00012651  00000+0  42486-3 0  9996
2 64880  97.4550 146.9988 0009379 132.0419 228.1622 15.30950186 82316
239ALFEROV (RS61S)      
1 64881U 25155F   26178.27070894  .00015880  00000+0  49640-3 0  9993
2 64881  97.4550 147.6150 0009094 130.2730 229.9309 15.33203226 82350
GEOSCAN 2 (RS92S2)      
1 64890U 25155Q   26178.24227207  .00010706  00000+0  35713-3 0  9990
2 64890  97.4550 147.1471 0009001 120.7992 239.4136 15.31213650 82324
GEOSCAN 5 (RS92S5)      
1 64891U 25155R   26178.25765193  .00015550  00000+0  48152-3 0  9996
2 64891  97.4542 147.7432 0007951 133.6825 226.5078 15.33519033 82361
GEOSCAN 4 (RS92S4)      
1 64892U 25155S   26178.24082060  .00015247  00000+0  46984-3 0  9995
2 64892  97.4546 147.7776 0007991 133.2928 226.8982 15.33676927 82364
GEOSCAN 3 (RS92S3)      
1 64893U 25155T   26178.22842071  .00019551  00000+0  56377-3 0  9999
2 64893  97.4534 148.2240 0007957 132.4449 227.7469 15.35722110 82396
